PROMETHEUS 2-3          
1 41855U 16067H   25275.09080029  .00207485  00000+0  21594-2 0  9990
2 41855  98.0482 141.8865 0004334 161.5132 198.6283 15.63891591488197
CORVUS BC2              
1 42846U 17042X   25274.99721828  .00009746  00000+0  71112-3 0  9994
2 42846  97.3842  82.2112 0012020 275.1149  84.8706 15.03833840448227
CORVUS BC1              
1 42847U 17042Y   25275.02935087  .00009943  00000+0  72112-3 0  9994
2 42847  97.3847  82.8664 0011619 250.0531 109.9444 15.04062070448252
MIRATA                  
1 43015U 17073C   25274.96019918  .00621135  00000+0  32111-2 0  9991
2 43015  97.5114 176.4306 0040028  33.3665 327.0111 15.78395241428621
MAKERSAT 0              
1 43016U 17073D   25271.21199642  .00030290  00000+0  11154-2 0  9990
2 43016  97.4983 148.4559 0139577 115.6224 245.9508 15.19014051426513
SIRION PATHFINDER-2     
1 43759U 18099B   25275.06014064  .00012894  00000+0  77125-3 0  9995
2 43759  97.4663 325.2464 0011162 109.5925 250.6512 15.11126924373593
CORVUS BC4              
1 43767U 18099K   25275.07836696  .00012647  00000+0  79197-3 0  9995
2 43767  97.4476 320.5381 0009396 161.9479 198.2086 15.09472936373421
SPACEBEE-7              
1 43816U 18099BL  25275.17171403  .00101255  00000+0  21168-2 0  9997
2 43816  97.4845 348.0585 0004989  72.4562 287.7231 15.45099664374430
SHIELDS 1               
1 43850U 18104B   25275.09339289  .00092363  00000+0  74526-3 0  9997
2 43850  85.0108 315.4437 0006669  77.9993 282.2022 15.70548246379360
DUCHIFAT-3              
1 44854U 19089C   25275.19840159  .00183918  00000+0  20482-2 0  9997
2 44854  36.9383 340.3736 0006225 136.9005 223.2245 15.61302076320831
M2 PATHFINDER           
1 45727U 20037E   25275.02103573  .00006096  00000+0  45879-3 0  9995
2 45727  97.8161  98.5946 0010775 310.4074  49.6210 15.02860237286696
NETSAT-4                
1 46504U 20068U   25274.93172902  .00029575  00000+0  91086-3 0  9992
2 46504  97.8561 259.5178 0008258 142.7259 217.4556 15.33558343276057
NETSAT-3                
1 46505U 20068V   25274.90544072  .00030808  00000+0  99424-3 0  9996
2 46505  97.8574 258.1619 0007409 152.9655 207.1972 15.32061135275994
NETSAT-1                
1 46506U 20068W   25275.20881220  .00023426  00000+0  89761-3 0  9991
2 46506  97.8611 255.4181 0006530 168.8287 191.3097 15.26514416275835
NETSAT-2                
1 46507U 20068X   25274.94130123  .00035080  00000+0  10803-2 0  9990
2 46507  97.8563 258.9698 0005739 159.0485 201.0992 15.33541399275993
WILDTRACKCUBE-SIMBA     
1 47941U 21022K   25275.19163068  .00091479  00000+0  14018-2 0  9992
2 47941  97.4070 182.8040 0004795 234.7706 125.3099 15.54004626250932
LEDSAT                  
1 49069U 21073D   25275.20177308  .00681292  19770-3  17714-2 0  9997
2 49069  97.3705   3.2908 0005355 299.4576  60.6165 15.95013594229439
GREENCUBE (IO-117)      
1 53109U 22080E   25272.64891321 -.00000003  00000+0  00000+0 0  9994
2 53109  70.1586  28.8344 0008596 345.7673  14.2744  6.42583543 75328
SITRO-AIS 5 (KATYS)     
1 57176U 23091L   25275.17899409  .00023537  00000+0  10272-2 0  9992
2 57176  97.5462 332.3920 0011891 291.9093  68.0878 15.22082092124999
SITRO-AIS 6 (CHIRKIN)   
1 57192U 23091AC  25275.17874713  .00014641  00000+0  65089-3 0  9994
2 57192  97.5460 332.3703 0011333 292.8787  67.1251 15.21559414124996
SITRO-AIS 8 (ANOKHIN)   
1 57193U 23091AD  25275.16433794  .00025765  00000+0  10731-2 0  9996
2 57193  97.5458 333.1353 0011126 290.4654  69.5388 15.23657988125042
SITRO-AIS 7 (FARTUSHNIY)
1 57194U 23091AE  25275.20856491  .00024570  00000+0  10927-2 0  9995
2 57194  97.5460 332.3196 0011134 294.2195  65.7876 15.21434340124999
SITRO-AIS 10 (BURDAEV)  
1 57199U 23091AK  25275.20668749  .00061694  00000+0  22744-2 0  9995
2 57199  97.5467 336.1450 0007221 267.8360  92.2052 15.27549979125238
SITRO-AIS 9 (SHCHUKIN)  
1 57201U 23091AM  25275.17385986  .00030330  00000+0  11328-2 0  9993
2 57201  97.5467 335.9859 0007189 268.7464  91.2951 15.27300490125229
SITRO-AIS 12 (SMIRENNIY)
1 57204U 23091AQ  25275.20618294  .00060065  00000+0  22157-2 0  9991
2 57204  97.5474 336.3510 0007178 260.5337  99.5091 15.27539589125247
SITRO-AIS 11 (SHEFFER)  
1 57208U 23091AU  25275.20824212  .00060051  00000+0  21990-2 0  9993
2 57208  97.5474 336.4777 0007088 260.8072  99.2365 15.27781937125254
ROBUSTA-1E (ENSO)       
1 58470U 23185J   25274.64559369  .00294403  00000+0  17996-2 0  9995
2 58470  97.3585 354.6123 0002854 341.7791  18.3372 15.76527964102850
SITRO-AIS 25            
1 59066U 24039R   25275.19405146  .00016283  00000+0  13372-2 0  9992
2 59066  95.3876  58.1083 0153560 147.9576 213.1099 14.90366845 86252
SITRO-AIS 26            
1 59067U 24039S   25275.16431490  .00015946  00000+0  13141-2 0  9990
2 59067  95.3883  58.0310 0153834 148.3338 212.7255 14.90212902 86240
SITRO-AIS 27            
1 59068U 24039T   25275.20094109  .00025174  00000+0  20558-2 0  9992
2 59068  95.3876  58.2209 0153033 147.3891 213.6899 14.90567152 86262
SITRO-AIS 28            
1 59071U 24039U   25275.18492734  .00025368  00000+0  20702-2 0  9995
2 59071  95.3880  58.2430 0152840 147.3498 213.7290 14.90612254 86265
GRBBETA                 
1 60237U 24128C   25275.09259744  .00012089  00000+0  85928-3 0  9990
2 60237  61.9916  40.0007 0056819  81.7799 278.9731 15.03755853 67410
OOV-CUBE (TUBSAT-30)    
1 60240U 24128F   25275.08001359  .00007484  00000+0  57846-3 0  9991
2 60240  61.9962  44.4855 0058298  79.1289 281.6355 15.00976071 67341
ROBUSTA-3A (MEDITERRAN*)
1 60243U 24128J   25275.08924073  .00020282  00000+0  13281-2 0  9996
2 60243  61.9888  37.6601 0056247  75.8483 284.8851 15.06491831 67466
LASARSAT                
1 62391U 24247Q   25275.02030089  .00043723  00000+0  14807-2 0  9993
2 62391  44.9788 255.0482 0006494   2.0846 358.0064 15.29936261 43560
CROCUBE                 
1 62394U 24247T   25274.99432113  .00045501  00000+0  15215-2 0  9995
2 62394  44.9765 254.8081 0007384  11.3194 348.7855 15.30324561 43568
